{
    "links": {
        "self": "http://www.neowsapp.com/rest/v1/neo/3698577?api_key=iIulBulltgU6a56xZRHN4H3l9WmuAYTsLGpBGhQ2"
    },
    "id": "3698577",
    "neo_reference_id": "3698577",
    "name": "(2014 WW201)",
    "designation": "2014 WW201",
    "nasa_jpl_url": "http://ssd.jpl.nasa.gov/sbdb.cgi?sstr=3698577",
    "absolute_magnitude_h": 25.0,
    "estimated_diameter": {
        "kilometers": {
            "estimated_diameter_min": 0.02658,
            "estimated_diameter_max": 0.0594346868
        },
        "meters": {
            "estimated_diameter_min": 26.58,
            "estimated_diameter_max": 59.4346868419
        },
        "miles": {
            "estimated_diameter_min": 0.0165160412,
            "estimated_diameter_max": 0.0369309908
        },
        "feet": {
            "estimated_diameter_min": 87.2047272,
            "estimated_diameter_max": 194.9956979785
        }
    },
    "is_potentially_hazardous_asteroid": false,
    "close_approach_data": [
        {
            "close_approach_date": "1949-10-20",
            "close_approach_date_full": "1949-Oct-20 12:06",
            "epoch_date_close_approach": -637415640000,
            "relative_velocity": {
                "kilometers_per_second": "13.6159570836",
                "kilometers_per_hour": "49017.4455008012",
                "miles_per_hour": "30457.5344002062"
            },
            "miss_distance": {
                "astronomical": "0.2319330124",
                "lunar": "90.2219418236",
                "kilometers": "34696684.637723588",
                "miles": "21559520.1056499944"
            },
            "orbiting_body": "Earth"
        },
        {
            "close_approach_date": "1996-10-14",
            "close_approach_date_full": "1996-Oct-14 07:10",
            "epoch_date_close_approach": 845277000000,
            "relative_velocity": {
                "kilometers_per_second": "15.8408291811",
                "kilometers_per_hour": "57026.9850518808",
                "miles_per_hour": "35434.3507951534"
            },
            "miss_distance": {
                "astronomical": "0.2967474775",
                "lunar": "115.4347687475",
                "kilometers": "44392790.561872925",
                "miles": "27584400.949479365"
            },
            "orbiting_body": "Earth"
        },
        {
            "close_approach_date": "2014-11-26",
            "close_approach_date_full": "2014-Nov-26 18:28",
            "epoch_date_close_approach": 1417026480000,
            "relative_velocity": {
                "kilometers_per_second": "8.6595857522",
                "kilometers_per_hour": "31174.5087078274",
                "miles_per_hour": "19370.6273690386"
            },
            "miss_distance": {
                "astronomical": "0.0268483427",
                "lunar": "10.4440053103",
                "kilometers": "4016454.880950049",
                "miles": "2495709.3354427162"
            },
            "orbiting_body": "Earth"
        }
    ],
    "orbital_data": {
        "orbit_id": "8",
        "orbit_determination_date": "2017-04-06 08:37:15",
        "first_observation_date": "2014-11-22",
        "last_observation_date": "2014-11-28",
        "data_arc_in_days": 6,
        "observations_used": 26,
        "orbit_uncertainty": "6",
        "minimum_orbit_intersection": ".0255414",
        "jupiter_tisserand_invariant": "3.300",
        "epoch_osculation": "2459000.5",
        "eccentricity": ".5706146315007697",
        "semi_major_axis": "2.356394747323983",
        "inclination": "8.788263430700407",
        "ascending_node_longitude": "60.32615552026899",
        "orbital_period": "1321.205873873494",
        "perihelion_distance": "1.011801426909359",
        "perihelion_argument": "4.106333368393876",
        "aphelion_distance": "3.700988067738608",
        "perihelion_time": "2459629.359512642797",
        "mean_anomaly": "188.6493959584957",
        "mean_motion": ".2724783526314159",
        "equinox": "J2000",
        "orbit_class": {
            "orbit_class_type": "APO",
            "orbit_class_description": "Near-Earth asteroid orbits which cross the Earth’s orbit similar to that of 1862 Apollo",
            "orbit_class_range": "a (semi-major axis) > 1.0 AU; q (perihelion) < 1.017 AU"
        }
    },
    "is_sentry_object": false
}